[{"OBJECT_NAME":"ONEWEB-0255","OBJECT_ID":"2021-060G","EPOCH":"2025-07-31T13:33:35.859168","MEAN_MOTION":13.16595895,"ECCENTRICITY":0.0002065,"INCLINATION":87.9043,"RA_OF_ASC_NODE":292.7027,"ARG_OF_PERICENTER":90.4377,"MEAN_ANOMALY":269.699,"EPHEMERIS_TYPE":0,"CLASSIFICATION_TYPE":"U","NORAD_CAT_ID":48973,"ELEMENT_SET_NO":999,"REV_AT_EPOCH":19876,"BSTAR":-4.3511e-5,"MEAN_MOTION_DOT":-4.0e-8,"MEAN_MOTION_DDOT":0},{"OBJECT_NAME":"ONEWEB-0256","OBJECT_ID":"2021-060H","EPOCH":"2025-07-31T14:11:12.077664","MEAN_MOTION":13.16595333,"ECCENTRICITY":0.0002087,"INCLINATION":87.9041,"RA_OF_ASC_NODE":292.7084,"ARG_OF_PERICENTER":101.6556,"MEAN_ANOMALY":258.4809,"EPHEMERIS_TYPE":0,"CLASSIFICATION_TYPE":"U","NORAD_CAT_ID":48974,"ELEMENT_SET_NO":999,"REV_AT_EPOCH":19744,"BSTAR":-0.00019306,"MEAN_MOTION_DOT":-6.1e-7,"MEAN_MOTION_DDOT":0},{"OBJECT_NAME":"ONEWEB-0257","OBJECT_ID":"2021-060J","EPOCH":"2025-07-31T14:57:57.156480","MEAN_MOTION":13.16595759,"ECCENTRICITY":0.0002167,"INCLINATION":87.9047,"RA_OF_ASC_NODE":292.6681,"ARG_OF_PERICENTER":93.7931,"MEAN_ANOMALY":266.3448,"EPHEMERIS_TYPE":0,"CLASSIFICATION_TYPE":"U","NORAD_CAT_ID":48975,"ELEMENT_SET_NO":999,"REV_AT_EPOCH":19740,"BSTAR":-0.00013426,"MEAN_MOTION_DOT":-3.8e-7,"MEAN_MOTION_DDOT":0},{"OBJECT_NAME":"ONEWEB-0258","OBJECT_ID":"2021-060K","EPOCH":"2025-07-31T18:39:06.766560","MEAN_MOTION":13.1659334,"ECCENTRICITY":0.0001932,"INCLINATION":87.9044,"RA_OF_ASC_NODE":292.6628,"ARG_OF_PERICENTER":97.3636,"MEAN_ANOMALY":262.7714,"EPHEMERIS_TYPE":0,"CLASSIFICATION_TYPE":"U","NORAD_CAT_ID":48976,"ELEMENT_SET_NO":999,"REV_AT_EPOCH":19871,"BSTAR":-0.00025148,"MEAN_MOTION_DOT":-8.3e-7,"MEAN_MOTION_DDOT":0},{"OBJECT_NAME":"ONEWEB-0259","OBJECT_ID":"2021-060L","EPOCH":"2025-07-31T14:51:06.769440","MEAN_MOTION":13.16595675,"ECCENTRICITY":0.0001996,"INCLINATION":87.9047,"RA_OF_ASC_NODE":292.6788,"ARG_OF_PERICENTER":93.4407,"MEAN_ANOMALY":266.6953,"EPHEMERIS_TYPE":0,"CLASSIFICATION_TYPE":"U","NORAD_CAT_ID":48977,"ELEMENT_SET_NO":999,"REV_AT_EPOCH":19744,"BSTAR":-0.00014211,"MEAN_MOTION_DOT":-4.1e-7,"MEAN_MOTION_DDOT":0},{"OBJECT_NAME":"ONEWEB-0260","OBJECT_ID":"2021-060M","EPOCH":"2025-07-31T14:38:33.844416","MEAN_MOTION":13.16595028,"ECCENTRICITY":0.0002485,"INCLINATION":87.9042,"RA_OF_ASC_NODE":292.7062,"ARG_OF_PERICENTER":104.1139,"MEAN_ANOMALY":256.0268,"EPHEMERIS_TYPE":0,"CLASSIFICATION_TYPE":"U","NORAD_CAT_ID":48978,"ELEMENT_SET_NO":999,"REV_AT_EPOCH":19742,"BSTAR":-0.00031015,"MEAN_MOTION_DOT":-1.06e-6,"MEAN_MOTION_DDOT":0},{"OBJECT_NAME":"ONEWEB-0261","OBJECT_ID":"2021-060N","EPOCH":"2025-07-31T13:55:15.550176","MEAN_MOTION":13.16594887,"ECCENTRICITY":0.0002384,"INCLINATION":87.9041,"RA_OF_ASC_NODE":292.7136,"ARG_OF_PERICENTER":91.3012,"MEAN_ANOMALY":268.8392,"EPHEMERIS_TYPE":0,"CLASSIFICATION_TYPE":"U","NORAD_CAT_ID":48979,"ELEMENT_SET_NO":999,"REV_AT_EPOCH":19747,"BSTAR":0.00032691,"MEAN_MOTION_DOT":1.38e-6,"MEAN_MOTION_DDOT":0},{"OBJECT_NAME":"ONEWEB-0262","OBJECT_ID":"2021-060P","EPOCH":"2025-07-31T11:37:20.457984","MEAN_MOTION":13.16593466,"ECCENTRICITY":0.0001883,"INCLINATION":87.9046,"RA_OF_ASC_NODE":292.6946,"ARG_OF_PERICENTER":88.9292,"MEAN_ANOMALY":271.2054,"EPHEMERIS_TYPE":0,"CLASSIFICATION_TYPE":"U","NORAD_CAT_ID":48980,"ELEMENT_SET_NO":999,"REV_AT_EPOCH":19742,"BSTAR":-0.0001123,"MEAN_MOTION_DOT":-3.0e-7,"MEAN_MOTION_DDOT":0},{"OBJECT_NAME":"ONEWEB-0263","OBJECT_ID":"2021-060Q","EPOCH":"2025-07-31T14:12:22.804704","MEAN_MOTION":13.16594286,"ECCENTRICITY":0.000222,"INCLINATION":87.9044,"RA_OF_ASC_NODE":292.6971,"ARG_OF_PERICENTER":86.7048,"MEAN_ANOMALY":273.4337,"EPHEMERIS_TYPE":0,"CLASSIFICATION_TYPE":"U","NORAD_CAT_ID":48981,"ELEMENT_SET_NO":999,"REV_AT_EPOCH":19740,"BSTAR":0.00025563,"MEAN_MOTION_DOT":1.11e-6,"MEAN_MOTION_DDOT":0},{"OBJECT_NAME":"ONEWEB-0264","OBJECT_ID":"2021-060R","EPOCH":"2025-07-31T15:05:55.611168","MEAN_MOTION":13.16592275,"ECCENTRICITY":0.0002088,"INCLINATION":87.9042,"RA_OF_ASC_NODE":292.6948,"ARG_OF_PERICENTER":95.493,"MEAN_ANOMALY":264.6439,"EPHEMERIS_TYPE":0,"CLASSIFICATION_TYPE":"U","NORAD_CAT_ID":48982,"ELEMENT_SET_NO":999,"REV_AT_EPOCH":19741,"BSTAR":-0.0001434,"MEAN_MOTION_DOT":-4.2e-7,"MEAN_MOTION_DDOT":0},{"OBJECT_NAME":"ONEWEB-0266","OBJECT_ID":"2021-060T","EPOCH":"2025-07-31T13:47:16.993536","MEAN_MOTION":13.16593177,"ECCENTRICITY":0.0001819,"INCLINATION":87.9047,"RA_OF_ASC_NODE":292.6807,"ARG_OF_PERICENTER":97.1398,"MEAN_ANOMALY":262.994,"EPHEMERIS_TYPE":0,"CLASSIFICATION_TYPE":"U","NORAD_CAT_ID":48984,"ELEMENT_SET_NO":999,"REV_AT_EPOCH":19739,"BSTAR":-5.4345e-5,"MEAN_MOTION_DOT":-8.0e-8,"MEAN_MOTION_DDOT":0},{"OBJECT_NAME":"ONEWEB-0267","OBJECT_ID":"2021-060U","EPOCH":"2025-07-31T17:42:06.841152","MEAN_MOTION":13.16593452,"ECCENTRICITY":0.0002208,"INCLINATION":87.9047,"RA_OF_ASC_NODE":292.6505,"ARG_OF_PERICENTER":93.2311,"MEAN_ANOMALY":266.9072,"EPHEMERIS_TYPE":0,"CLASSIFICATION_TYPE":"U","NORAD_CAT_ID":48985,"ELEMENT_SET_NO":999,"REV_AT_EPOCH":19871,"BSTAR":5.7612e-5,"MEAN_MOTION_DOT":3.5e-7,"MEAN_MOTION_DDOT":0},{"OBJECT_NAME":"ONEWEB-0268","OBJECT_ID":"2021-060V","EPOCH":"2025-07-31T18:45:56.806272","MEAN_MOTION":13.16596234,"ECCENTRICITY":0.0002145,"INCLINATION":87.9048,"RA_OF_ASC_NODE":292.6475,"ARG_OF_PERICENTER":99.3547,"MEAN_ANOMALY":260.7826,"EPHEMERIS_TYPE":0,"CLASSIFICATION_TYPE":"U","NORAD_CAT_ID":48986,"ELEMENT_SET_NO":999,"REV_AT_EPOCH":19898,"BSTAR":-0.00036892,"MEAN_MOTION_DOT":-1.28e-6,"MEAN_MOTION_DDOT":0},{"OBJECT_NAME":"ONEWEB-0269","OBJECT_ID":"2021-060W","EPOCH":"2025-07-31T14:39:42.553152","MEAN_MOTION":13.16595939,"ECCENTRICITY":0.0001984,"INCLINATION":87.9043,"RA_OF_ASC_NODE":292.7143,"ARG_OF_PERICENTER":100.1051,"MEAN_ANOMALY":260.0304,"EPHEMERIS_TYPE":0,"CLASSIFICATION_TYPE":"U","NORAD_CAT_ID":48987,"ELEMENT_SET_NO":999,"REV_AT_EPOCH":19744,"BSTAR":0.00011424,"MEAN_MOTION_DOT":5.7e-7,"MEAN_MOTION_DDOT":0},{"OBJECT_NAME":"ONEWEB-0270","OBJECT_ID":"2021-060X","EPOCH":"2025-07-31T18:43:39.533088","MEAN_MOTION":13.16596563,"ECCENTRICITY":0.000216,"INCLINATION":87.9043,"RA_OF_ASC_NODE":292.6503,"ARG_OF_PERICENTER":85.6619,"MEAN_ANOMALY":274.4759,"EPHEMERIS_TYPE":0,"CLASSIFICATION_TYPE":"U","NORAD_CAT_ID":48988,"ELEMENT_SET_NO":999,"REV_AT_EPOCH":19881,"BSTAR":-0.00022337,"MEAN_MOTION_DOT":-7.3e-7,"MEAN_MOTION_DDOT":0},{"OBJECT_NAME":"ONEWEB-0271","OBJECT_ID":"2021-060Y","EPOCH":"2025-07-31T14:46:33.625344","MEAN_MOTION":13.16593726,"ECCENTRICITY":0.000219,"INCLINATION":87.9048,"RA_OF_ASC_NODE":292.6665,"ARG_OF_PERICENTER":92.2019,"MEAN_ANOMALY":267.9362,"EPHEMERIS_TYPE":0,"CLASSIFICATION_TYPE":"U","NORAD_CAT_ID":48989,"ELEMENT_SET_NO":999,"REV_AT_EPOCH":19748,"BSTAR":-6.8641e-5,"MEAN_MOTION_DOT":-1.3e-7,"MEAN_MOTION_DDOT":0},{"OBJECT_NAME":"ONEWEB-0272","OBJECT_ID":"2021-060Z","EPOCH":"2025-07-31T11:39:36.411840","MEAN_MOTION":13.16599739,"ECCENTRICITY":0.0002303,"INCLINATION":87.9044,"RA_OF_ASC_NODE":292.7224,"ARG_OF_PERICENTER":96.1581,"MEAN_ANOMALY":263.9812,"EPHEMERIS_TYPE":0,"CLASSIFICATION_TYPE":"U","NORAD_CAT_ID":48990,"ELEMENT_SET_NO":999,"REV_AT_EPOCH":19741,"BSTAR":7.4597e-5,"MEAN_MOTION_DOT":4.1e-7,"MEAN_MOTION_DDOT":0}]
