ONEWEB-0255             
1 48973U 21060G   25212.56499837 -.00000004  00000+0 -43511-4 0  9996
2 48973  87.9043 292.7027 0002065  90.4377 269.6990 13.16595895198760
ONEWEB-0256             
1 48974U 21060H   25212.59111201 -.00000061  00000+0 -19306-3 0  9993
2 48974  87.9041 292.7084 0002087 101.6556 258.4809 13.16595333197446
ONEWEB-0257             
1 48975U 21060J   25212.62357820 -.00000038  00000+0 -13426-3 0  9998
2 48975  87.9047 292.6681 0002167  93.7931 266.3448 13.16595759197407
ONEWEB-0258             
1 48976U 21060K   25212.77716165 -.00000083  00000+0 -25148-3 0  9990
2 48976  87.9044 292.6628 0001932  97.3636 262.7714 13.16593340198712
ONEWEB-0259             
1 48977U 21060L   25212.61882835 -.00000041  00000+0 -14211-3 0  9995
2 48977  87.9047 292.6788 0001996  93.4407 266.6953 13.16595675197446
ONEWEB-0260             
1 48978U 21060M   25212.61011394 -.00000106  00000+0 -31015-3 0  9993
2 48978  87.9042 292.7062 0002485 104.1139 256.0268 13.16595028197426
ONEWEB-0261             
1 48979U 21060N   25212.58004109  .00000138  00000+0  32691-3 0  9990
2 48979  87.9041 292.7136 0002384  91.3012 268.8392 13.16594887197479
ONEWEB-0262             
1 48980U 21060P   25212.48426456 -.00000030  00000+0 -11230-3 0  9993
2 48980  87.9046 292.6946 0001883  88.9292 271.2054 13.16593466197429
ONEWEB-0263             
1 48981U 21060Q   25212.59193061  .00000111  00000+0  25563-3 0  9991
2 48981  87.9044 292.6971 0002220  86.7048 273.4337 13.16594286197404
ONEWEB-0264             
1 48982U 21060R   25212.62911587 -.00000042  00000+0 -14340-3 0  9993
2 48982  87.9042 292.6948 0002088  95.4930 264.6439 13.16592275197418
ONEWEB-0266             
1 48984U 21060T   25212.57450224 -.00000008  00000+0 -54345-4 0  9997
2 48984  87.9047 292.6807 0001819  97.1398 262.9940 13.16593177197394
ONEWEB-0267             
1 48985U 21060U   25212.73757918  .00000035  00000+0  57612-4 0  9994
2 48985  87.9047 292.6505 0002208  93.2311 266.9072 13.16593452198718
ONEWEB-0268             
1 48986U 21060V   25212.78190748 -.00000128  00000+0 -36892-3 0  9993
2 48986  87.9048 292.6475 0002145  99.3547 260.7826 13.16596234198983
ONEWEB-0269             
1 48987U 21060W   25212.61090918  .00000057  00000+0  11424-3 0  9997
2 48987  87.9043 292.7143 0001984 100.1051 260.0304 13.16595939197448
ONEWEB-0270             
1 48988U 21060X   25212.78031867 -.00000073  00000+0 -22337-3 0  9999
2 48988  87.9043 292.6503 0002160  85.6619 274.4759 13.16596563198811
ONEWEB-0271             
1 48989U 21060Y   25212.61566696 -.00000013  00000+0 -68641-4 0  9998
2 48989  87.9048 292.6665 0002190  92.2019 267.9362 13.16593726197484
ONEWEB-0272             
1 48990U 21060Z   25212.48583810  .00000041  00000+0  74597-4 0  9998
2 48990  87.9044 292.7224 0002303  96.1581 263.9812 13.16599739197416
